start=new Date('2023-02-23T00:00:00.000Z').valueOf();
sats=[{"DECAY_DATE":null,"OBJECT_ID":"2020-062X","MEAN_ELEMENT_THEORY":"SGP4","MEAN_MOTION_DDOT":"0.0000000000000","INCLINATION":"53.0582","TLE_LINE1":"1 46346U 20062X   23053.88319630  .00041169  00000-0  98473-3 0  9999","ARG_OF_PERICENTER":"223.0319","MEAN_MOTION":"15.41089469","SEMIMAJOR_AXIS":"6821.030","GP_ID":"226471668","CLASSIFICATION_TYPE":"U","OBJECT_NAME":"STARLINK-1546","PERIOD":"93.440","CENTER_NAME":"EARTH","NORAD_CAT_ID":"46346","REV_AT_EPOCH":"13982","EPHEMERIS_TYPE":"0","LAUNCH_DATE":"2020-09-03","REF_FRAME":"TEME","RA_OF_ASC_NODE":"115.6095","BSTAR":"0.00098473000000","ECCENTRICITY":"0.00020320","COUNTRY_CODE":"US","OBJECT_TYPE":"PAYLOAD","APOAPSIS":"444.281","FILE":"3825529","EPOCH":"2023-02-22T21:11:48.160320","TLE_LINE2":"2 46346  53.0582 115.6095 0002032 223.0319 137.0527 15.41089469139827","TIME_SYSTEM":"UTC","RCS_SIZE":"LARGE","SITE":"AFETR","MEAN_MOTION_DOT":"0.00041169","ELEMENT_SET_NO":"999","MEAN_ANOMALY":"137.0527","PERIAPSIS":"441.509"},{"TIME_SYSTEM":"UTC","EPOCH":"2023-02-22T21:44:50.340480","TLE_LINE2":"2 46347  53.0515 278.1230 0001298 104.8066 255.3067 15.06384302137509","MEAN_ANOMALY":"255.3067","PERIAPSIS":"546.363","SITE":"AFETR","MEAN_MOTION_DOT":"-0.00000521","RCS_SIZE":"LARGE","ELEMENT_SET_NO":"999","ECCENTRICITY":"0.00012980","RA_OF_ASC_NODE":"278.1230","BSTAR":"-0.00001610800000","FILE":"3825529","OBJECT_TYPE":"PAYLOAD","COUNTRY_CODE":"US","APOAPSIS":"548.161","PERIOD":"95.593","OBJECT_NAME":"STARLINK-1547","CENTER_NAME":"EARTH","MEAN_MOTION":"15.06384302","SEMIMAJOR_AXIS":"6925.397","CLASSIFICATION_TYPE":"U","GP_ID":"226470444","LAUNCH_DATE":"2020-09-03","REF_FRAME":"TEME","NORAD_CAT_ID":"46347","REV_AT_EPOCH":"13750","EPHEMERIS_TYPE":"0","OBJECT_ID":"2020-062Y","MEAN_ELEMENT_THEORY":"SGP4","MEAN_MOTION_DDOT":"0.0000000000000","DECAY_DATE":null,"TLE_LINE1":"1 46347U 20062Y   23053.90613820 -.00000521  00000-0 -16108-4 0  9996","ARG_OF_PERICENTER":"104.8066","INCLINATION":"53.0515"},{"SITE":"AFETR","RCS_SIZE":"LARGE","MEAN_MOTION_DOT":"0.00024384","ELEMENT_SET_NO":"999","MEAN_ANOMALY":"280.5519","PERIAPSIS":"546.238","EPOCH":"2023-02-22T22:47:53.308320","TLE_LINE2":"2 46348  53.0513 302.9279 0001096  79.5594 280.5519 15.06470689137176","TIME_SYSTEM":"UTC","COUNTRY_CODE":"US","OBJECT_TYPE":"PAYLOAD","APOAPSIS":"547.756","FILE":"3825529","RA_OF_ASC_NODE":"302.9279","BSTAR":"0.00164710000000","ECCENTRICITY":"0.00010960","REV_AT_EPOCH":"13717","NORAD_CAT_ID":"46348","EPHEMERIS_TYPE":"0","LAUNCH_DATE":"2020-09-03","REF_FRAME":"TEME","MEAN_MOTION":"15.06470689","SEMIMAJOR_AXIS":"6925.132","CLASSIFICATION_TYPE":"U","GP_ID":"226470694","PERIOD":"95.588","OBJECT_NAME":"STARLINK-1553","CENTER_NAME":"EARTH","INCLINATION":"53.0513","TLE_LINE1":"1 46348U 20062Z   23053.94992255  .00024384  00000-0  16471-2 0  9995","ARG_OF_PERICENTER":"79.5594","DECAY_DATE":null,"OBJECT_ID":"2020-062Z","MEAN_ELEMENT_THEORY":"SGP4","MEAN_MOTION_DDOT":"0.0000000000000"},{"REF_FRAME":"TEME","LAUNCH_DATE":"2020-09-03","REV_AT_EPOCH":"13751","NORAD_CAT_ID":"46349","EPHEMERIS_TYPE":"0","CENTER_NAME":"EARTH","PERIOD":"95.593","OBJECT_NAME":"STARLINK-1575","MEAN_MOTION":"15.06390285","GP_ID":"226470945","CLASSIFICATION_TYPE":"U","SEMIMAJOR_AXIS":"6925.378","TLE_LINE1":"1 46349U 20062AA  23053.88035649  .00016677  00000-0  11361-2 0  9993","ARG_OF_PERICENTER":"102.1871","INCLINATION":"53.0519","MEAN_ELEMENT_THEORY":"SGP4","OBJECT_ID":"2020-062AA","MEAN_MOTION_DDOT":"0.0000000000000","DECAY_DATE":null,"MEAN_ANOMALY":"257.9310","PERIAPSIS":"546.056","RCS_SIZE":"LARGE","SITE":"AFETR","MEAN_MOTION_DOT":"0.00016677","ELEMENT_SET_NO":"999","TIME_SYSTEM":"UTC","EPOCH":"2023-02-22T21:07:42.800736","TLE_LINE2":"2 46349  53.0519 278.2331 0001714 102.1871 257.9310 15.06390285137513","FILE":"3825529","APOAPSIS":"548.430","OBJECT_TYPE":"PAYLOAD","COUNTRY_CODE":"US","ECCENTRICITY":"0.00017140","BSTAR":"0.00113610000000","RA_OF_ASC_NODE":"278.2331"},{"FILE":"3825529","OBJECT_TYPE":"PAYLOAD","COUNTRY_CODE":"US","APOAPSIS":"548.219","ECCENTRICITY":"0.00015600","RA_OF_ASC_NODE":"323.0972","BSTAR":"0.00141930000000","MEAN_ANOMALY":"240.2211","PERIAPSIS":"546.058","SITE":"AFETR","MEAN_MOTION_DOT":"0.00020936","RCS_SIZE":"LARGE","ELEMENT_SET_NO":"999","TIME_SYSTEM":"UTC","EPOCH":"2023-02-22T21:52:09.394176","TLE_LINE2":"2 46350  53.0545 323.0972 0001560 119.8933 240.2211 15.06424447136890","TLE_LINE1":"1 46350U 20062AB  23053.91121984  .00020936  00000-0  14193-2 0  9996","ARG_OF_PERICENTER":"119.8933","INCLINATION":"53.0545","OBJECT_ID":"2020-062AB","MEAN_ELEMENT_THEORY":"SGP4","MEAN_MOTION_DDOT":"0.0000000000000","DECAY_DATE":null,"LAUNCH_DATE":"2020-09-03","REF_FRAME":"TEME","REV_AT_EPOCH":"13689","NORAD_CAT_ID":"46350","EPHEMERIS_TYPE":"0","PERIOD":"95.591","OBJECT_NAME":"STARLINK-1617","CENTER_NAME":"EARTH","MEAN_MOTION":"15.06424447","SEMIMAJOR_AXIS":"6925.274","CLASSIFICATION_TYPE":"U","GP_ID":"226471169"},{"TIME_SYSTEM":"UTC","EPOCH":"2023-02-22T21:58:44.935104","TLE_LINE2":"2 46351  53.0547 303.0590 0001528  62.1595 297.9549 15.06388384137180","MEAN_ANOMALY":"297.9549","PERIAPSIS":"546.191","SITE":"AFETR","RCS_SIZE":"LARGE","MEAN_MOTION_DOT":"0.00017716","ELEMENT_SET_NO":"999","ECCENTRICITY":"0.00015280","RA_OF_ASC_NODE":"303.0590","BSTAR":"0.00120560000000","FILE":"3825529","COUNTRY_CODE":"US","OBJECT_TYPE":"PAYLOAD","APOAPSIS":"548.307","PERIOD":"95.593","OBJECT_NAME":"STARLINK-1646","CENTER_NAME":"EARTH","MEAN_MOTION":"15.06388384","SEMIMAJOR_AXIS":"6925.384","CLASSIFICATION_TYPE":"U","GP_ID":"226469944","REF_FRAME":"TEME","LAUNCH_DATE":"2020-09-03","NORAD_CAT_ID":"46351","REV_AT_EPOCH":"13718","EPHEMERIS_TYPE":"0","OBJECT_ID":"2020-062AC","MEAN_ELEMENT_THEORY":"SGP4","MEAN_MOTION_DDOT":"0.0000000000000","DECAY_DATE":null,"ARG_OF_PERICENTER":"62.1595","TLE_LINE1":"1 46351U 20062AC  23053.91579786  .00017716  00000-0  12056-2 0  9992","INCLINATION":"53.0547"},{"FILE":"3825529","APOAPSIS":"548.138","OBJECT_TYPE":"PAYLOAD","COUNTRY_CODE":"US","ECCENTRICITY":"0.00013980","BSTAR":"0.00179920000000","RA_OF_ASC_NODE":"303.1596","MEAN_ANOMALY":"284.3428","PERIAPSIS":"546.202","SITE":"AFETR","MEAN_MOTION_DOT":"0.00026630","RCS_SIZE":"LARGE","ELEMENT_SET_NO":"999","TIME_SYSTEM":"UTC","EPOCH":"2023-02-22T21:33:33.287616","TLE_LINE2":"2 46352  53.0522 303.1596 0001398  75.7716 284.3428 15.06414265137174","ARG_OF_PERICENTER":"75.7716","TLE_LINE1":"1 46352U 20062AD  23053.89830194  .00026630  00000-0  17992-2 0  9992","INCLINATION":"53.0522","MEAN_ELEMENT_THEORY":"SGP4","OBJECT_ID":"2020-062AD","MEAN_MOTION_DDOT":"0.0000000000000","DECAY_DATE":null,"LAUNCH_DATE":"2020-09-03","REF_FRAME":"TEME","REV_AT_EPOCH":"13717","NORAD_CAT_ID":"46352","EPHEMERIS_TYPE":"0","CENTER_NAME":"EARTH","PERIOD":"95.591","OBJECT_NAME":"STARLINK-1653","MEAN_MOTION":"15.06414265","CLASSIFICATION_TYPE":"U","GP_ID":"226470194","SEMIMAJOR_AXIS":"6925.305"},{"ELEMENT_SET_NO":"999","RCS_SIZE":"LARGE","SITE":"AFETR","MEAN_MOTION_DOT":"0.00030046","PERIAPSIS":"546.401","MEAN_ANOMALY":"257.9797","TLE_LINE2":"2 46353  53.0537 323.1693 0001032 102.1307 257.9797 15.06431889136880","EPOCH":"2023-02-22T21:30:54.727200","TIME_SYSTEM":"UTC","APOAPSIS":"547.831","COUNTRY_CODE":"US","OBJECT_TYPE":"PAYLOAD","FILE":"3825529","BSTAR":"0.00202570000000","RA_OF_ASC_NODE":"323.1693","ECCENTRICITY":"0.00010320","EPHEMERIS_TYPE":"0","REV_AT_EPOCH":"13688","NORAD_CAT_ID":"46353","LAUNCH_DATE":"2020-09-03","REF_FRAME":"TEME","GP_ID":"226471444","CLASSIFICATION_TYPE":"U","SEMIMAJOR_AXIS":"6925.251","MEAN_MOTION":"15.06431889","CENTER_NAME":"EARTH","PERIOD":"95.590","OBJECT_NAME":"STARLINK-1656","INCLINATION":"53.0537","ARG_OF_PERICENTER":"102.1307","TLE_LINE1":"1 46353U 20062AE  23053.89646675  .00030046  00000-0  20257-2 0  9996","DECAY_DATE":null,"MEAN_MOTION_DDOT":"0.0000000000000","MEAN_ELEMENT_THEORY":"SGP4","OBJECT_ID":"2020-062AE"},{"DECAY_DATE":null,"MEAN_ELEMENT_THEORY":"SGP4","OBJECT_ID":"2020-062AF","MEAN_MOTION_DDOT":"0.0000000000000","INCLINATION":"53.0532","ARG_OF_PERICENTER":"51.7671","TLE_LINE1":"1 46354U 20062AF  23053.15560601  .00032725  00000-0  22062-2 0  9992","MEAN_MOTION":"15.06391231","CLASSIFICATION_TYPE":"U","GP_ID":"226417935","SEMIMAJOR_AXIS":"6925.375","CENTER_NAME":"EARTH","PERIOD":"95.593","OBJECT_NAME":"STARLINK-1657","NORAD_CAT_ID":"46354","REV_AT_EPOCH":"13677","EPHEMERIS_TYPE":"0","REF_FRAME":"TEME","LAUNCH_DATE":"2020-09-03","BSTAR":"0.00220620000000","RA_OF_ASC_NODE":"326.4947","ECCENTRICITY":"0.00011090","APOAPSIS":"548.008","OBJECT_TYPE":"PAYLOAD","COUNTRY_CODE":"US","FILE":"3824148","EPOCH":"2023-02-22T03:44:04.359264","TLE_LINE2":"2 46354  53.0532 326.4947 0001109  51.7671 308.3418 15.06391231136777","TIME_SYSTEM":"UTC","MEAN_MOTION_DOT":"0.00032725","SITE":"AFETR","RCS_SIZE":"LARGE","ELEMENT_SET_NO":"999","MEAN_ANOMALY":"308.3418","PERIAPSIS":"546.472"},{"ECCENTRICITY":"0.00011240","BSTAR":"0.00200510000000","RA_OF_ASC_NODE":"323.0370","FILE":"3825529","APOAPSIS":"547.884","COUNTRY_CODE":"US","OBJECT_TYPE":"PAYLOAD","TIME_SYSTEM":"UTC","TLE_LINE2":"2 46355  53.0524 323.0370 0001124  79.4552 280.6564 15.06435306136893","EPOCH":"2023-02-22T22:13:22.835136","PERIAPSIS":"546.327","MEAN_ANOMALY":"280.6564","ELEMENT_SET_NO":"999","SITE":"AFETR","MEAN_MOTION_DOT":"0.00029739","RCS_SIZE":"LARGE","MEAN_MOTION_DDOT":"0.0000000000000","MEAN_ELEMENT_THEORY":"SGP4","OBJECT_ID":"2020-062AG","DECAY_DATE":null,"TLE_LINE1":"1 46355U 20062AG  23053.92595874  .00029739  00000-0  20051-2 0  9995","ARG_OF_PERICENTER":"79.4552","INCLINATION":"53.0524","CENTER_NAME":"EARTH","PERIOD":"95.590","OBJECT_NAME":"STARLINK-1661","CLASSIFICATION_TYPE":"U","GP_ID":"226470445","SEMIMAJOR_AXIS":"6925.240","MEAN_MOTION":"15.06435306","LAUNCH_DATE":"2020-09-03","REF_FRAME":"TEME","EPHEMERIS_TYPE":"0","NORAD_CAT_ID":"46355","REV_AT_EPOCH":"13689"}];
